{
  "type": "FeatureCollection",
  "features": [
    {
      "type": "Feature",
      "properties": {
        "norad_id": 30243,
        "name": "FENGYUN 1C DEB",
        "group": "fengyun-1c-debris",
        "lat": -76.34088523100057,
        "lon": 37.57952949930128,
        "alt_km": 865.3723770696142,
        "timestamp": "2025-12-13T03:42:11.547778+00:00",
        "meta_object_name": "FENGYUN 1C DEB",
        "meta_object_id": "1999-025XC",
        "meta_epoch": "2025-12-12T07:44:36.919392",
        "meta_mean_motion": 14.13020795,
        "meta_eccentricity": 0.00130649,
        "meta_inclination": 98.6932,
        "meta_ra_of_asc_node": 357.7536,
        "meta_arg_of_pericenter": 120.1754,
        "meta_mean_anomaly": 252.2391,
        "meta_ephemeris_type": 0,
        "meta_classification_type": "U",
        "meta_norad_cat_id": 30243,
        "meta_element_set_no": 999,
        "meta_rev_at_epoch": 97273,
        "meta_bstar": 0.00056300303,
        "meta_mean_motion_dot": 1.008e-05,
        "meta_mean_motion_ddot": 0,
        "tle_line1": "1 30243U 99025XC  25346.32264953  .00001008  00000+0  56300-3 0  9996",
        "tle_line2": "2 30243  98.6932 357.7536 0013064 120.1754 252.2391 14.13020795972735"
      },
      "geometry": {
        "type": "Point",
        "coordinates": [
          37.57952949930128,
          -76.34088523100057
        ]
      }
    },
    {
      "type": "Feature",
      "properties": {
        "norad_id": 30244,
        "name": "FENGYUN 1C DEB",
        "group": "fengyun-1c-debris",
        "lat": 60.100941130630055,
        "lon": 73.08114375026703,
        "alt_km": 843.0533383142429,
        "timestamp": "2025-12-13T03:42:11.547788+00:00",
        "meta_object_name": "FENGYUN 1C DEB",
        "meta_object_id": "1999-025XD",
        "meta_epoch": "2025-12-12T04:06:37.336608",
        "meta_mean_motion": 14.15014767,
        "meta_eccentricity": 0.00095991,
        "meta_inclination": 99.1434,
        "meta_ra_of_asc_node": 235.8087,
        "meta_arg_of_pericenter": 316.8127,
        "meta_mean_anomaly": 196.8316,
        "meta_ephemeris_type": 0,
        "meta_classification_type": "U",
        "meta_norad_cat_id": 30244,
        "meta_element_set_no": 999,
        "meta_rev_at_epoch": 97338,
        "meta_bstar": 0.00059936615,
        "meta_mean_motion_dot": 1.114e-05,
        "meta_mean_motion_ddot": 0,
        "tle_line1": "1 30244U 99025XD  25346.17126547  .00001114  00000+0  59937-3 0  9993",
        "tle_line2": "2 30244  99.1434 235.8087 0009599 316.8127 196.8316 14.15014767973388"
      },
      "geometry": {
        "type": "Point",
        "coordinates": [
          73.08114375026703,
          60.100941130630055
        ]
      }
    },
    {
      "type": "Feature",
      "properties": {
        "norad_id": 30245,
        "name": "FENGYUN 1C DEB",
        "group": "fengyun-1c-debris",
        "lat": -23.52016071415644,
        "lon": 150.82356100302965,
        "alt_km": 872.9680508194033,
        "timestamp": "2025-12-13T03:42:11.547798+00:00",
        "meta_object_name": "FENGYUN 1C DEB",
        "meta_object_id": "1999-025XE",
        "meta_epoch": "2025-12-12T05:48:20.233440",
        "meta_mean_motion": 13.79066548,
        "meta_eccentricity": 0.01931242,
        "meta_inclination": 98.8891,
        "meta_ra_of_asc_node": 333.8727,
        "meta_arg_of_pericenter": 252.3707,
        "meta_mean_anomaly": 105.6274,
        "meta_ephemeris_type": 0,
        "meta_classification_type": "U",
        "meta_norad_cat_id": 30245,
        "meta_element_set_no": 999,
        "meta_rev_at_epoch": 94687,
        "meta_bstar": 0.0017131966,
        "meta_mean_motion_dot": 1.971e-05,
        "meta_mean_motion_ddot": 0,
        "tle_line1": "1 30245U 99025XE  25346.24190085  .00001971  00000+0  17132-2 0  9991",
        "tle_line2": "2 30245  98.8891 333.8727 0193124 252.3707 105.6274 13.79066548946876"
      },
      "geometry": {
        "type": "Point",
        "coordinates": [
          150.82356100302965,
          -23.52016071415644
        ]
      }
    },
    {
      "type": "Feature",
      "properties": {
        "norad_id": 30246,
        "name": "FENGYUN 1C DEB",
        "group": "fengyun-1c-debris",
        "lat": -61.807938703613644,
        "lon": -65.77630719092521,
        "alt_km": 1349.8387870239976,
        "timestamp": "2025-12-13T03:42:11.547808+00:00",
        "meta_object_name": "FENGYUN 1C DEB",
        "meta_object_id": "1999-025XF",
        "meta_epoch": "2025-12-11T22:21:07.533216",
        "meta_mean_motion": 13.37018261,
        "meta_eccentricity": 0.0370694,
        "meta_inclination": 98.6731,
        "meta_ra_of_asc_node": 129.7233,
        "meta_arg_of_pericenter": 101.7378,
        "meta_mean_anomaly": 15.3709,
        "meta_ephemeris_type": 0,
        "meta_classification_type": "U",
        "meta_norad_cat_id": 30246,
        "meta_element_set_no": 999,
        "meta_rev_at_epoch": 92129,
        "meta_bstar": 0.00040358,
        "meta_mean_motion_dot": 2.8e-06,
        "meta_mean_motion_ddot": 0,
        "tle_line1": "1 30246U 99025XF  25345.93133719  .00000280  00000+0  40358-3 0  9997",
        "tle_line2": "2 30246  98.6731 129.7233 0370694 101.7378  15.3709 13.37018261921294"
      },
      "geometry": {
        "type": "Point",
        "coordinates": [
          -65.77630719092521,
          -61.807938703613644
        ]
      }
    },
    {
      "type": "Feature",
      "properties": {
        "norad_id": 30247,
        "name": "FENGYUN 1C DEB",
        "group": "fengyun-1c-debris",
        "lat": 49.59157835187994,
        "lon": 84.14990327030743,
        "alt_km": 793.4047759643263,
        "timestamp": "2025-12-13T03:42:11.547818+00:00",
        "meta_object_name": "FENGYUN 1C DEB",
        "meta_object_id": "1999-025XG",
        "meta_epoch": "2025-12-11T07:16:05.073600",
        "meta_mean_motion": 14.59085464,
        "meta_eccentricity": 0.01943746,
        "meta_inclination": 98.2758,
        "meta_ra_of_asc_node": 252.4592,
        "meta_arg_of_pericenter": 356.481,
        "meta_mean_anomaly": 131.693,
        "meta_ephemeris_type": 0,
        "meta_classification_type": "U",
        "meta_norad_cat_id": 30247,
        "meta_element_set_no": 999,
        "meta_rev_at_epoch": 97261,
        "meta_bstar": 0.0070169312,
        "meta_mean_motion_dot": 0.00043145,
        "meta_mean_motion_ddot": 0,
        "tle_line1": "1 30247U 99025XG  25345.30283650  .00043145  00000+0  70169-2 0  9998",
        "tle_line2": "2 30247  98.2758 252.4592 0194374 356.4810 131.6930 14.59085464972615"
      },
      "geometry": {
        "type": "Point",
        "coordinates": [
          84.14990327030743,
          49.59157835187994
        ]
      }
    },
    {
      "type": "Feature",
      "properties": {
        "norad_id": 30248,
        "name": "FENGYUN 1C DEB",
        "group": "fengyun-1c-debris",
        "lat": 16.808884762444634,
        "lon": -5.907242573023998,
        "alt_km": 676.1746920598998,
        "timestamp": "2025-12-13T03:42:11.547828+00:00",
        "meta_object_name": "FENGYUN 1C DEB",
        "meta_object_id": "1999-025XH",
        "meta_epoch": "2025-12-11T11:27:47.355552",
        "meta_mean_motion": 14.59109462,
        "meta_eccentricity": 0.00290598,
        "meta_inclination": 99.0999,
        "meta_ra_of_asc_node": 169.4814,
        "meta_arg_of_pericenter": 154.3791,
        "meta_mean_anomaly": 205.8853,
        "meta_ephemeris_type": 0,
        "meta_classification_type": "U",
        "meta_norad_cat_id": 30248,
        "meta_element_set_no": 999,
        "meta_rev_at_epoch": 97410,
        "meta_bstar": 0.008467698,
        "meta_mean_motion_dot": 0.00040266,
        "meta_mean_motion_ddot": 0,
        "tle_line1": "1 30248U 99025XH  25345.47763143  .00040266  00000+0  84677-2 0  9997",
        "tle_line2": "2 30248  99.0999 169.4814 0029059 154.3791 205.8853 14.59109462974105"
      },
      "geometry": {
        "type": "Point",
        "coordinates": [
          -5.907242573023998,
          16.808884762444634
        ]
      }
    },
    {
      "type": "Feature",
      "properties": {
        "norad_id": 30249,
        "name": "FENGYUN 1C DEB",
        "group": "fengyun-1c-debris",
        "lat": -47.28024468270172,
        "lon": -38.233428860103366,
        "alt_km": 726.0129240386023,
        "timestamp": "2025-12-13T03:42:11.547838+00:00",
        "meta_object_name": "FENGYUN 1C DEB",
        "meta_object_id": "1999-025XJ",
        "meta_epoch": "2025-12-12T00:50:00.685824",
        "meta_mean_motion": 14.5763538,
        "meta_eccentricity": 0.0026444,
        "meta_inclination": 98.9588,
        "meta_ra_of_asc_node": 150.3987,
        "meta_arg_of_pericenter": 44.1613,
        "meta_mean_anomaly": 72.2187,
        "meta_ephemeris_type": 0,
        "meta_classification_type": "U",
        "meta_norad_cat_id": 30249,
        "meta_element_set_no": 999,
        "meta_rev_at_epoch": 97553,
        "meta_bstar": 0.004717,
        "meta_mean_motion_dot": 0.00021616,
        "meta_mean_motion_ddot": 0,
        "tle_line1": "1 30249U 99025XJ  25346.03473016  .00021616  00000+0  47170-2 0  9993",
        "tle_line2": "2 30249  98.9588 150.3987 0026444  44.1613  72.2187 14.57635380975537"
      },
      "geometry": {
        "type": "Point",
        "coordinates": [
          -38.233428860103366,
          -47.28024468270172
        ]
      }
    }
  ]
}